STARLINK-3508           
1 51862U 22022L   22072.58334491  .00030696  00000+0  22301-3 0  9994
2 51862  53.2179  94.7840 0001068  39.5784  26.5103 15.73127824  2834
STARLINK-3555           
1 51863U 22022M   22072.83334491  .00059985  00000+0  42969-3 0  9997
2 51863  53.2185  93.5399 0001323  59.8439 346.1280 15.73149509  2824
STARLINK-3548           
1 51864U 22022N   22072.58334491 -.00023190  00000+0 -16108-3 0  9997
2 51864  53.2181  94.7819 0001322  50.2064  17.1318 15.73227111  2226
STARLINK-3503           
1 51865U 22022P   22072.83334491  .00048147  00000+0  34712-3 0  9994
2 51865  53.2186  93.5372 0001276  70.1451 337.1045 15.73090565  2821
STARLINK-3553           
1 51866U 22022Q   22072.83334491  .00003854  00000+0  31855-4 0  9997
2 51866  53.2183  93.5407 0001191  54.1619 351.1527 15.73203735  2828
STARLINK-3590           
1 51867U 22022R   22072.83334491 -.00060773  00000+0 -43134-3 0  9995
2 51867  53.2188  93.5362 0001197  63.7175 344.1894 15.73220961  2822
STARLINK-3578           
1 51868U 22022S   22072.58334491  .00062301  00000+0  44610-3 0  9995
2 51868  53.2182  94.7769 0001354  45.6134  24.3087 15.73143729  2782
STARLINK-3588           
1 51869U 22022T   22072.58334491 -.00045076  00000+0 -31877-3 0  9999
2 51869  53.2186  94.7708 0001122  49.8577  23.3089 15.73178966  2210
STARLINK-3591           
1 51870U 22022U   22072.58334491 -.00079428  00000+0 -56684-3 0  9992
2 51870  53.2182  94.7727 0001313  42.1600  29.7436 15.73201083  2835
STARLINK-3567           
1 51871U 22022V   22072.58334491 -.00037871  00000+0 -26653-3 0  9992
2 51871  53.2186  94.7693 0001501  40.1372  33.6787 15.73207782  2830
STARLINK-3554           
1 51872U 22022W   22072.58334491 -.00061006  00000+0 -43392-3 0  9999
2 51872  53.2183  94.7718 0001449  38.3169  34.2232 15.73171996  2783
STARLINK-3582           
1 51873U 22022X   22072.58334491 -.00053829  00000+0 -38175-3 0  9997
2 51873  53.2186  94.7659 0001381  38.9220  36.7877 15.73189117  2786
STARLINK-3574           
1 51874U 22022Y   22072.83334491 -.00008140  00000+0 -53796-4 0  9999
2 51874  53.2184  93.5292 0001420  52.9879 358.1196 15.73132872  2821
