[
    {
       "OBJECT_NAME": "STARLINK-3508",
       "OBJECT_ID": "2022-022L",
       "EPOCH": "2022-03-13T14:00:01.000224",
       "MEAN_MOTION": 15.73127824,
       "ECCENTRICITY": 0.0001068,
       "INCLINATION": 53.2179,
       "RA_OF_ASC_NODE": 94.784,
       "ARG_OF_PERICENTER": 39.5784,
       "MEAN_ANOMALY": 26.5103,
       "EPHEMERIS_TYPE": 0,
       "CLASSIFICATION_TYPE": "U",
       "NORAD_CAT_ID": 51862,
       "ELEMENT_SET_NO": 999,
       "REV_AT_EPOCH": 283,
       "BSTAR": 0.00022301,
       "MEAN_MOTION_DOT": 0.00030696,
       "MEAN_MOTION_DDOT": 0
    },
    {
       "OBJECT_NAME": "STARLINK-3555",
       "OBJECT_ID": "2022-022M",
       "EPOCH": "2022-03-13T20:00:01.000224",
       "MEAN_MOTION": 15.73149509,
       "ECCENTRICITY": 0.0001323,
       "INCLINATION": 53.2185,
       "RA_OF_ASC_NODE": 93.5399,
       "ARG_OF_PERICENTER": 59.8439,
       "MEAN_ANOMALY": 346.128,
       "EPHEMERIS_TYPE": 0,
       "CLASSIFICATION_TYPE": "U",
       "NORAD_CAT_ID": 51863,
       "ELEMENT_SET_NO": 999,
       "REV_AT_EPOCH": 282,
       "BSTAR": 0.00042969,
       "MEAN_MOTION_DOT": 0.00059985,
       "MEAN_MOTION_DDOT": 0
    },
    {
       "OBJECT_NAME": "STARLINK-3548",
       "OBJECT_ID": "2022-022N",
       "EPOCH": "2022-03-13T14:00:01.000224",
       "MEAN_MOTION": 15.73227111,
       "ECCENTRICITY": 0.0001322,
       "INCLINATION": 53.2181,
       "RA_OF_ASC_NODE": 94.7819,
       "ARG_OF_PERICENTER": 50.2064,
       "MEAN_ANOMALY": 17.1318,
       "EPHEMERIS_TYPE": 0,
       "CLASSIFICATION_TYPE": "U",
       "NORAD_CAT_ID": 51864,
       "ELEMENT_SET_NO": 999,
       "REV_AT_EPOCH": 222,
       "BSTAR": -0.00016108,
       "MEAN_MOTION_DOT": -0.0002319,
       "MEAN_MOTION_DDOT": 0
    },
    {
       "OBJECT_NAME": "STARLINK-3503",
       "OBJECT_ID": "2022-022P",
       "EPOCH": "2022-03-13T20:00:01.000224",
       "MEAN_MOTION": 15.73090565,
       "ECCENTRICITY": 0.0001276,
       "INCLINATION": 53.2186,
       "RA_OF_ASC_NODE": 93.5372,
       "ARG_OF_PERICENTER": 70.1451,
       "MEAN_ANOMALY": 337.1045,
       "EPHEMERIS_TYPE": 0,
       "CLASSIFICATION_TYPE": "U",
       "NORAD_CAT_ID": 51865,
       "ELEMENT_SET_NO": 999,
       "REV_AT_EPOCH": 282,
       "BSTAR": 0.00034712,
       "MEAN_MOTION_DOT": 0.00048147,
       "MEAN_MOTION_DDOT": 0
    },
    {
       "OBJECT_NAME": "STARLINK-3553",
       "OBJECT_ID": "2022-022Q",
       "EPOCH": "2022-03-13T20:00:01.000224",
       "MEAN_MOTION": 15.73203735,
       "ECCENTRICITY": 0.0001191,
       "INCLINATION": 53.2183,
       "RA_OF_ASC_NODE": 93.5407,
       "ARG_OF_PERICENTER": 54.1619,
       "MEAN_ANOMALY": 351.1527,
       "EPHEMERIS_TYPE": 0,
       "CLASSIFICATION_TYPE": "U",
       "NORAD_CAT_ID": 51866,
       "ELEMENT_SET_NO": 999,
       "REV_AT_EPOCH": 282,
       "BSTAR": 0.000031855,
       "MEAN_MOTION_DOT": 0.00003854,
       "MEAN_MOTION_DDOT": 0
    },
    {
       "OBJECT_NAME": "STARLINK-3590",
       "OBJECT_ID": "2022-022R",
       "EPOCH": "2022-03-13T20:00:01.000224",
       "MEAN_MOTION": 15.73220961,
       "ECCENTRICITY": 0.0001197,
       "INCLINATION": 53.2188,
       "RA_OF_ASC_NODE": 93.5362,
       "ARG_OF_PERICENTER": 63.7175,
       "MEAN_ANOMALY": 344.1894,
       "EPHEMERIS_TYPE": 0,
       "CLASSIFICATION_TYPE": "U",
       "NORAD_CAT_ID": 51867,
       "ELEMENT_SET_NO": 999,
       "REV_AT_EPOCH": 282,
       "BSTAR": -0.00043134,
       "MEAN_MOTION_DOT": -0.00060773,
       "MEAN_MOTION_DDOT": 0
    },
    {
       "OBJECT_NAME": "STARLINK-3578",
       "OBJECT_ID": "2022-022S",
       "EPOCH": "2022-03-13T14:00:01.000224",
       "MEAN_MOTION": 15.73143729,
       "ECCENTRICITY": 0.0001354,
       "INCLINATION": 53.2182,
       "RA_OF_ASC_NODE": 94.7769,
       "ARG_OF_PERICENTER": 45.6134,
       "MEAN_ANOMALY": 24.3087,
       "EPHEMERIS_TYPE": 0,
       "CLASSIFICATION_TYPE": "U",
       "NORAD_CAT_ID": 51868,
       "ELEMENT_SET_NO": 999,
       "REV_AT_EPOCH": 278,
       "BSTAR": 0.0004461,
       "MEAN_MOTION_DOT": 0.00062301,
       "MEAN_MOTION_DDOT": 0
    },
    {
       "OBJECT_NAME": "STARLINK-3588",
       "OBJECT_ID": "2022-022T",
       "EPOCH": "2022-03-13T14:00:01.000224",
       "MEAN_MOTION": 15.73178966,
       "ECCENTRICITY": 0.0001122,
       "INCLINATION": 53.2186,
       "RA_OF_ASC_NODE": 94.7708,
       "ARG_OF_PERICENTER": 49.8577,
       "MEAN_ANOMALY": 23.3089,
       "EPHEMERIS_TYPE": 0,
       "CLASSIFICATION_TYPE": "U",
       "NORAD_CAT_ID": 51869,
       "ELEMENT_SET_NO": 999,
       "REV_AT_EPOCH": 221,
       "BSTAR": -0.00031877,
       "MEAN_MOTION_DOT": -0.00045076,
       "MEAN_MOTION_DDOT": 0
    },
    {
       "OBJECT_NAME": "STARLINK-3591",
       "OBJECT_ID": "2022-022U",
       "EPOCH": "2022-03-13T14:00:01.000224",
       "MEAN_MOTION": 15.73201083,
       "ECCENTRICITY": 0.0001313,
       "INCLINATION": 53.2182,
       "RA_OF_ASC_NODE": 94.7727,
       "ARG_OF_PERICENTER": 42.16,
       "MEAN_ANOMALY": 29.7436,
       "EPHEMERIS_TYPE": 0,
       "CLASSIFICATION_TYPE": "U",
       "NORAD_CAT_ID": 51870,
       "ELEMENT_SET_NO": 999,
       "REV_AT_EPOCH": 283,
       "BSTAR": -0.00056684,
       "MEAN_MOTION_DOT": -0.00079428,
       "MEAN_MOTION_DDOT": 0
    },
    {
       "OBJECT_NAME": "STARLINK-3567",
       "OBJECT_ID": "2022-022V",
       "EPOCH": "2022-03-13T14:00:01.000224",
       "MEAN_MOTION": 15.73207782,
       "ECCENTRICITY": 0.0001501,
       "INCLINATION": 53.2186,
       "RA_OF_ASC_NODE": 94.7693,
       "ARG_OF_PERICENTER": 40.1372,
       "MEAN_ANOMALY": 33.6787,
       "EPHEMERIS_TYPE": 0,
       "CLASSIFICATION_TYPE": "U",
       "NORAD_CAT_ID": 51871,
       "ELEMENT_SET_NO": 999,
       "REV_AT_EPOCH": 283,
       "BSTAR": -0.00026653,
       "MEAN_MOTION_DOT": -0.00037871,
       "MEAN_MOTION_DDOT": 0
    },
    {
       "OBJECT_NAME": "STARLINK-3554",
       "OBJECT_ID": "2022-022W",
       "EPOCH": "2022-03-13T14:00:01.000224",
       "MEAN_MOTION": 15.73171996,
       "ECCENTRICITY": 0.0001449,
       "INCLINATION": 53.2183,
       "RA_OF_ASC_NODE": 94.7718,
       "ARG_OF_PERICENTER": 38.3169,
       "MEAN_ANOMALY": 34.2232,
       "EPHEMERIS_TYPE": 0,
       "CLASSIFICATION_TYPE": "U",
       "NORAD_CAT_ID": 51872,
       "ELEMENT_SET_NO": 999,
       "REV_AT_EPOCH": 278,
       "BSTAR": -0.00043392,
       "MEAN_MOTION_DOT": -0.00061006,
       "MEAN_MOTION_DDOT": 0
    },
    {
       "OBJECT_NAME": "STARLINK-3582",
       "OBJECT_ID": "2022-022X",
       "EPOCH": "2022-03-13T14:00:01.000224",
       "MEAN_MOTION": 15.73189117,
       "ECCENTRICITY": 0.0001381,
       "INCLINATION": 53.2186,
       "RA_OF_ASC_NODE": 94.7659,
       "ARG_OF_PERICENTER": 38.922,
       "MEAN_ANOMALY": 36.7877,
       "EPHEMERIS_TYPE": 0,
       "CLASSIFICATION_TYPE": "U",
       "NORAD_CAT_ID": 51873,
       "ELEMENT_SET_NO": 999,
       "REV_AT_EPOCH": 278,
       "BSTAR": -0.00038175,
       "MEAN_MOTION_DOT": -0.00053829,
       "MEAN_MOTION_DDOT": 0
    },
    {
       "OBJECT_NAME": "STARLINK-3574",
       "OBJECT_ID": "2022-022Y",
       "EPOCH": "2022-03-13T20:00:01.000224",
       "MEAN_MOTION": 15.73132872,
       "ECCENTRICITY": 0.000142,
       "INCLINATION": 53.2184,
       "RA_OF_ASC_NODE": 93.5292,
       "ARG_OF_PERICENTER": 52.9879,
       "MEAN_ANOMALY": 358.1196,
       "EPHEMERIS_TYPE": 0,
       "CLASSIFICATION_TYPE": "U",
       "NORAD_CAT_ID": 51874,
       "ELEMENT_SET_NO": 999,
       "REV_AT_EPOCH": 282,
       "BSTAR": -0.000053796,
       "MEAN_MOTION_DOT": -0.0000814,
       "MEAN_MOTION_DDOT": 0
    }
 ]